YAOGAN-30 11A           
1 49026U 21065A   26068.71073618  .00004757  00000+0  35664-3 0  9999
2 49026  34.9929 159.1721 0004674 355.4238   4.6427 15.02110690253677
STARLINK-6305           
1 56394U 23061W   26067.38444347  .00000730  00000+0  69101-4 0  9997
2 56394  43.0040 191.9609 0001466 265.0576  95.0099 15.02540998156707
